ONEWEB-0560             
1 55145U 23004F   25336.17523065  .00000034  00000+0  54298-4 0  9995
2 55145  87.9183  14.6035 0001894  90.8333 269.3016 13.18684882143740
ONEWEB-0565             
1 55146U 23004G   25336.16863207  .00000076  00000+0  16048-3 0  9996
2 55146  87.9174  14.6522 0001535  79.7312 280.3993 13.18685082143736
ONEWEB-0567             
1 55147U 23004H   25336.16203558  .00000055  00000+0  10655-3 0  9999
2 55147  87.9181  14.6194 0001756  82.2379 277.8953 13.18685005143739
ONEWEB-0569             
1 55148U 23004J   25336.08904650 -.00000164  00000+0 -48440-3 0  9998
2 55148  87.8994 359.3833 0002269  69.8794 290.2579 13.13470082144301
ONEWEB-0570             
1 55149U 23004K   25336.15213360 -.00000007  00000+0 -49454-4 0  9991
2 55149  87.9180  14.6212 0001233  96.8495 263.2777 13.18686934143725
ONEWEB-0571             
1 55150U 23004L   25336.14553683  .00000091  00000+0  19850-3 0  9994
2 55150  87.9177  14.6222 0001819  54.5945 305.5357 13.18687437143739
ONEWEB-0572             
1 55151U 23004M   25336.16123146  .00000046  00000+0  86519-4 0  9991
2 55151  87.9129  45.0470 0001607  96.1060 264.0255 13.17648674141536
ONEWEB-0573             
1 55152U 23004N   25336.13893477  .00000082  00000+0  17442-3 0  9998
2 55152  87.9171  14.6298 0001246  72.1751 287.9517 13.18684834143721
